OBJECT_NAME,OBJECT_ID,EPOCH,MEAN_MOTION,ECCENTRICITY,INCLINATION,RA_OF_ASC_NODE,ARG_OF_PERICENTER,MEAN_ANOMALY,EPHEMERIS_TYPE,CLASSIFICATION_TYPE,NORAD_CAT_ID,ELEMENT_SET_NO,REV_AT_EPOCH,BSTAR,MEAN_MOTION_DOT,MEAN_MOTION_DDOT
STARLINK-36276,2026-034C,2026-05-09T16:50:06.252000,15.30180916,.00010398,53.1593,281.1111,89.9949,270.1171,0,U,67852,999,1337,.5003855E-3,.14481E-3,0
STARLINK-36785,2026-034D,2026-05-10T03:16:33.556800,15.30202980,.00012,53.1600,278.8192,78.3099,281.8036,0,U,67853,999,1344,.53898E-3,.15639E-3,0
STARLINK-36608,2026-034E,2026-05-09T17:32:29.055840,15.30191290,.0001017,53.1606,280.5496,99.8449,260.2666,0,U,67854,999,1337,.40746707E-3,.11725E-3,0
STARLINK-36838,2026-034F,2026-05-10T02:52:16.070016,15.30182104,.0001721,53.1593,278.7113,85.1793,274.9405,0,U,67855,999,1344,.48476E-3,.14017E-3,0
STARLINK-36843,2026-034G,2026-05-09T20:22:21.698400,15.30195261,.0001061,53.1578,279.8830,68.3182,291.7932,0,U,67856,999,1340,.69556E-3,.20295E-3,0
STARLINK-36828,2026-034H,2026-05-10T02:43:07.785984,15.30194086,.0001051,53.1580,278.6691,88.6882,271.4239,0,U,67857,999,1344,.54048E-3,.15679E-3,0
STARLINK-36837,2026-034J,2026-05-10T04:00:01.998720,15.34382933,.0001228,53.1599,277.3314,84.5352,52.7523,0,U,67858,999,586,.4137E-3,.13619E-3,0
STARLINK-36393,2026-034K,2026-05-09T16:49:59.457504,15.31693282,.00010546,53.1598,280.3638,91.3490,268.7633,0,U,67859,999,1338,.7730681E-3,.23695E-3,0
STARLINK-35873,2026-034L,2026-05-09T16:57:41.698368,15.30194699,.00012836,53.1585,281.1171,100.0419,260.0726,0,U,67860,999,1340,.26549378E-3,.7511E-4,0
STARLINK-36325,2026-034M,2026-05-09T16:53:08.302848,15.30197856,.00010006,53.1591,281.0955,81.5849,278.5266,0,U,67861,999,1337,.2863617E-3,.8131E-4,0
STARLINK-36332,2026-034N,2026-05-09T16:48:34.487424,15.30189909,.00009635,53.1586,281.0742,89.5085,270.6026,0,U,67862,999,1337,.15767217E-3,.4312E-4,0
STARLINK-36835,2026-034P,2026-05-09T16:44:01.321728,15.30188943,.00007182,53.1594,281.0536,58.3615,301.7456,0,U,67863,999,1337,.60016691E-3,.17452E-3,0
STARLINK-36831,2026-034Q,2026-05-09T16:39:27.636768,15.30195678,.00007774,53.1601,281.0329,85.4759,274.6331,0,U,67864,999,1337,.54137472E-3,.15707E-3,0
STARLINK-36738,2026-034R,2026-05-10T03:28:42.973248,15.30198955,.0001121,53.1606,278.8686,90.8376,269.2753,0,U,67865,999,1344,.45052E-3,.13007E-3,0
STARLINK-36780,2026-034S,2026-05-10T04:58:12.472320,15.30201972,.0001459,53.1599,278.5445,90.7787,269.3381,0,U,67866,999,1345,.35583E-3,.10195E-3,0
STARLINK-36761,2026-034T,2026-05-10T03:19:36.069024,15.30197161,.0001221,53.1603,278.8263,95.6487,264.4653,0,U,67867,999,1344,.77354E-3,.22619E-3,0
STARLINK-36762,2026-034U,2026-05-10T03:13:31.429920,15.30195231,.0001148,53.1596,278.8029,89.2895,270.8238,0,U,67868,999,1344,.70064E-3,.20446E-3,0
STARLINK-36779,2026-034V,2026-05-09T18:16:00.442272,15.35395093,.00009922,53.1589,279.3191,85.1359,274.9757,0,U,67869,999,1339,.70114263E-3,.24151E-3,0
STARLINK-36770,2026-034W,2026-05-10T03:02:53.115360,15.30191399,.0000611,53.1589,278.7563,86.0669,274.0401,0,U,67870,999,1344,.58229E-3,.16921E-3,0
STARLINK-36769,2026-034X,2026-05-10T02:59:50.521920,15.30195662,.0000995,53.1593,278.7384,96.9992,263.1122,0,U,67871,999,1344,.4146E-3,.11938E-3,0
STARLINK-36786,2026-034Y,2026-05-10T02:50:43.507968,15.30195251,.0000649,53.1588,278.6991,89.8305,270.2770,0,U,67872,999,1344,.31512E-3,.8984E-4,0
STARLINK-36783,2026-034Z,2026-05-10T04:00:01.998720,15.34384237,.0001205,53.1601,277.3342,91.2741,34.3939,0,U,67873,999,540,.43552E-3,.14359E-3,0
STARLINK-36730,2026-034AA,2026-05-10T03:24:13.732704,15.35367730,.0001244,53.1602,277.4268,86.1085,274.0060,0,U,67874,999,1346,.64286E-3,.22086E-3,0
STARLINK-36727,2026-034AB,2026-05-10T00:00:04.000320,15.31709987,.0001041,53.1574,279.0724,84.9010,71.4827,0,U,67875,999,583,-.30259E-3,-.9745E-4,0
STARLINK-36743,2026-034AC,2026-05-09T16:51:37.100736,15.30192879,.00008706,53.1590,281.0840,84.0966,276.0134,0,U,67876,999,1337,.31084725E-3,.8856E-4,0
STARLINK-36784,2026-034AD,2026-05-09T18:35:20.702688,15.29359895,.00009158,53.1593,280.8415,94.1595,265.9510,0,U,67877,999,1338,.29111687E-3,.8055E-4,0
STARLINK-36689,2026-034AE,2026-05-09T21:20:05.946144,15.30170103,.0001265,53.1598,280.1114,86.9619,273.1526,0,U,67878,999,1340,.10189E-2,.29912E-3,0
STARLINK-36818,2026-035A,2026-05-10T02:10:39.173952,15.33440257,.000162,97.2850,63.7602,94.2796,265.8631,0,U,67879,999,1339,.52466E-3,.16899E-3,0
STARLINK-36821,2026-035B,2026-05-10T02:06:44.741376,15.33435661,.0001565,97.2854,63.7647,99.6551,260.4868,0,U,67880,999,1339,.66704E-3,.21515E-3,0
STARLINK-36808,2026-035C,2026-05-09T18:48:13.265568,15.33439800,.00015865,97.2853,63.5681,96.4114,263.7309,0,U,67881,999,1335,.83235584E-3,.26888E-3,0
