STARLINK-36276          
1 67852U 26034C   26129.70146125  .00014481  00000+0  50039-3 0  9996
2 67852  53.1593 281.1111 0001039  89.9949 270.1171 15.30180916 13379
STARLINK-36785          
1 67853U 26034D   26130.13649950  .00015639  00000+0  53898-3 0  9992
2 67853  53.1600 278.8192 0001200  78.3099 281.8036 15.30202980 13442
STARLINK-36608          
1 67854U 26034E   26129.73089185  .00011725  00000+0  40747-3 0  9996
2 67854  53.1606 280.5496 0001017  99.8449 260.2666 15.30191290 13372
STARLINK-36838          
1 67855U 26034F   26130.11963044  .00014017  00000+0  48476-3 0  9990
2 67855  53.1593 278.7113 0001721  85.1793 274.9405 15.30182104 13440
STARLINK-36843          
1 67856U 26034G   26129.84886225  .00020295  00000+0  69556-3 0  9991
2 67856  53.1578 279.8830 0001061  68.3182 291.7932 15.30195261 13400
STARLINK-36828          
1 67857U 26034H   26130.11328456  .00015679  00000+0  54048-3 0  9991
2 67857  53.1580 278.6691 0001051  88.6882 271.4239 15.30194086 13440
STARLINK-36837          
1 67858U 26034J   26130.16668980  .00013619  00000+0  41370-3 0  9992
2 67858  53.1599 277.3314 0001228  84.5352  52.7523 15.34382933  5869
STARLINK-36393          
1 67859U 26034K   26129.70138261  .00023695  00000+0  77307-3 0  9999
2 67859  53.1598 280.3638 0001054  91.3490 268.7633 15.31693282 13384
STARLINK-35873          
1 67860U 26034L   26129.70673262  .00007511  00000+0  26549-3 0  9997
2 67860  53.1585 281.1171 0001283 100.0419 260.0726 15.30194699 13404
STARLINK-36325          
1 67861U 26034M   26129.70356832  .00008131  00000+0  28636-3 0  9997
2 67861  53.1591 281.0955 0001000  81.5849 278.5266 15.30197856 13375
STARLINK-36332          
1 67862U 26034N   26129.70039916  .00004312  00000+0  15767-3 0  9997
2 67862  53.1586 281.0742 0000963  89.5085 270.6026 15.30189909 13378
STARLINK-36835          
1 67863U 26034P   26129.69723752  .00017452  00000+0  60017-3 0  9991
2 67863  53.1594 281.0536 0000718  58.3615 301.7456 15.30188943 13370
STARLINK-36831          
1 67864U 26034Q   26129.69406987  .00015707  00000+0  54137-3 0  9997
2 67864  53.1601 281.0329 0000777  85.4759 274.6331 15.30195678 13378
STARLINK-36738          
1 67865U 26034R   26130.14494182  .00013007  00000+0  45052-3 0  9991
2 67865  53.1606 278.8686 0001121  90.8376 269.2753 15.30198955 13440
STARLINK-36780          
1 67866U 26034S   26130.20708880  .00010195  00000+0  35583-3 0  9995
2 67866  53.1599 278.5445 0001459  90.7787 269.3381 15.30201972 13454
STARLINK-36761          
1 67867U 26034T   26130.13861191  .00022619  00000+0  77354-3 0  9999
2 67867  53.1603 278.8263 0001221  95.6487 264.4653 15.30197161 13441
STARLINK-36762          
1 67868U 26034U   26130.13439155  .00020446  00000+0  70064-3 0  9998
2 67868  53.1596 278.8029 0001148  89.2895 270.8238 15.30195231 13449
STARLINK-36779          
1 67869U 26034V   26129.76111623  .00024151  00000+0  70114-3 0  9996
2 67869  53.1589 279.3191 0000992  85.1359 274.9757 15.35395093 13392
STARLINK-36770          
1 67870U 26034W   26130.12700365  .00016921  00000+0  58229-3 0  9996
2 67870  53.1589 278.7563 0000611  86.0669 274.0401 15.30191399 13443
STARLINK-36769          
1 67871U 26034X   26130.12489030  .00011938  00000+0  41460-3 0  9992
2 67871  53.1593 278.7384 0000995  96.9992 263.1122 15.30195662 13440
STARLINK-36786          
1 67872U 26034Y   26130.11855912  .00008984  00000+0  31512-3 0  9992
2 67872  53.1588 278.6991 0000649  89.8305 270.2770 15.30195251 13445
STARLINK-36783          
1 67873U 26034Z   26130.16668980  .00014359  00000+0  43552-3 0  9995
2 67873  53.1601 277.3342 0001205  91.2741  34.3939 15.34384237  5409
STARLINK-36730          
1 67874U 26034AA  26130.14182561  .00022086  00000+0  64286-3 0  9993
2 67874  53.1602 277.4268 0001244  86.1085 274.0060 15.35367730 13469
STARLINK-36727          
1 67875U 26034AB  26130.00004630 -.00009745  00000+0 -30259-3 0  9991
2 67875  53.1574 279.0724 0001041  84.9010  71.4827 15.31709987  5834
STARLINK-36743          
1 67876U 26034AC  26129.70251274  .00008856  00000+0  31085-3 0  9993
2 67876  53.1590 281.0840 0000870  84.0966 276.0134 15.30192879 13372
STARLINK-36784          
1 67877U 26034AD  26129.77454517  .00008055  00000+0  29112-3 0  9995
2 67877  53.1593 280.8415 0000915  94.1595 265.9510 15.29359895 13388
STARLINK-36689          
1 67878U 26034AE  26129.88895771  .00029912  00000+0  10189-2 0  9997
2 67878  53.1598 280.1114 0001265  86.9619 273.1526 15.30170103 13404
STARLINK-36818          
1 67879U 26035A   26130.09073118  .00016899  00000+0  52466-3 0  9992
2 67879  97.2850  63.7602 0001620  94.2796 265.8631 15.33440257 13391
STARLINK-36821          
1 67880U 26035B   26130.08801784  .00021515  00000+0  66704-3 0  9992
2 67880  97.2854  63.7647 0001565  99.6551 260.4868 15.33435661 13398
STARLINK-36808          
1 67881U 26035C   26129.78348687  .00026888  00000+0  83236-3 0  9993
2 67881  97.2853  63.5681 0001586  96.4114 263.7309 15.33439800 13358
